{
  "type": "FeatureCollection",
  "features": [
    {
      "type": "Feature",
      "properties": {
        "norad_id": 40069,
        "name": "METEOR-M 2",
        "group": "weather",
        "lat": 73.91560173682205,
        "lon": 173.72504788591698,
        "alt_km": 814.9406399957716,
        "timestamp": "2025-12-10T20:49:52.203683+00:00",
        "meta_object_name": "METEOR-M 2",
        "meta_object_id": "2014-037A",
        "meta_epoch": "2025-12-10T13:35:12.957216",
        "meta_mean_motion": 14.2138549,
        "meta_eccentricity": 0.00048872,
        "meta_inclination": 98.4903,
        "meta_ra_of_asc_node": 322.2336,
        "meta_arg_of_pericenter": 217.2437,
        "meta_mean_anomaly": 142.8403,
        "meta_ephemeris_type": 0,
        "meta_classification_type": "U",
        "meta_norad_cat_id": 40069,
        "meta_element_set_no": 999,
        "meta_rev_at_epoch": 59252,
        "meta_bstar": 0.00022319373,
        "meta_mean_motion_dot": 4.45e-06,
        "meta_mean_motion_ddot": 0,
        "tle_line1": "1 40069U 14037A   25344.56612219  .00000445  00000+0  22319-3 0  9996",
        "tle_line2": "2 40069  98.4903 322.2336 0004887 217.2437 142.8403 14.21385490592520"
      },
      "geometry": {
        "type": "Point",
        "coordinates": [
          173.72504788591698,
          73.91560173682205
        ]
      }
    },
    {
      "type": "Feature",
      "properties": {
        "norad_id": 40267,
        "name": "HIMAWARI-8",
        "group": "weather",
        "lat": -0.02009531316998881,
        "lon": 172.94701428838303,
        "alt_km": 35789.665830801765,
        "timestamp": "2025-12-10T20:49:52.203700+00:00",
        "meta_object_name": "HIMAWARI-8",
        "meta_object_id": "2014-060A",
        "meta_epoch": "2025-12-10T12:49:38.623584",
        "meta_mean_motion": 1.00270399,
        "meta_eccentricity": 0.00012389,
        "meta_inclination": 0.0342,
        "meta_ra_of_asc_node": 203.7403,
        "meta_arg_of_pericenter": 96.594,
        "meta_mean_anomaly": 112.2439,
        "meta_ephemeris_type": 0,
        "meta_classification_type": "U",
        "meta_norad_cat_id": 40267,
        "meta_element_set_no": 999,
        "meta_rev_at_epoch": 4086,
        "meta_bstar": 0,
        "meta_mean_motion_dot": -2.71e-06,
        "meta_mean_motion_ddot": 0,
        "tle_line1": "1 40267U 14060A   25344.53447481 -.00000271  00000+0  00000+0 0  9993",
        "tle_line2": "2 40267   0.0342 203.7403 0001238  96.5940 112.2439  1.00270399 40867"
      },
      "geometry": {
        "type": "Point",
        "coordinates": [
          172.94701428838303,
          -0.02009531316998881
        ]
      }
    },
    {
      "type": "Feature",
      "properties": {
        "norad_id": 40367,
        "name": "FENGYUN 2G",
        "group": "weather",
        "lat": 4.328250370439772,
        "lon": 131.7513986965247,
        "alt_km": 35797.45774833999,
        "timestamp": "2025-12-10T20:49:52.203715+00:00",
        "meta_object_name": "FENGYUN 2G",
        "meta_object_id": "2014-090A",
        "meta_epoch": "2025-12-10T14:59:09.767040",
        "meta_mean_motion": 1.00264684,
        "meta_eccentricity": 0.00031141,
        "meta_inclination": 5.1632,
        "meta_ra_of_asc_node": 75.1189,
        "meta_arg_of_pericenter": 195.603,
        "meta_mean_anomaly": 133.2481,
        "meta_ephemeris_type": 0,
        "meta_classification_type": "U",
        "meta_norad_cat_id": 40367,
        "meta_element_set_no": 999,
        "meta_rev_at_epoch": 4010,
        "meta_bstar": 0,
        "meta_mean_motion_dot": -2.97e-06,
        "meta_mean_motion_ddot": 0,
        "tle_line1": "1 40367U 14090A   25344.62441860 -.00000297  00000+0  00000+0 0  9990",
        "tle_line2": "2 40367   5.1632  75.1189 0003114 195.6030 133.2481  1.00264684 40101"
      },
      "geometry": {
        "type": "Point",
        "coordinates": [
          131.7513986965247,
          4.328250370439772
        ]
      }
    },
    {
      "type": "Feature",
      "properties": {
        "norad_id": 40732,
        "name": "METEOSAT-11 (MSG-4)",
        "group": "weather",
        "lat": -1.3651167744601498,
        "lon": 41.64817701324537,
        "alt_km": 35791.2576241424,
        "timestamp": "2025-12-10T20:49:52.203727+00:00",
        "meta_object_name": "METEOSAT-11 (MSG-4)",
        "meta_object_id": "2015-034A",
        "meta_epoch": "2025-12-09T22:35:38.584320",
        "meta_mean_motion": 1.00266624,
        "meta_eccentricity": 9.647e-05,
        "meta_inclination": 2.7284,
        "meta_ra_of_asc_node": 72.0094,
        "meta_arg_of_pericenter": 122.8009,
        "meta_mean_anomaly": 232.3625,
        "meta_ephemeris_type": 0,
        "meta_classification_type": "U",
        "meta_norad_cat_id": 40732,
        "meta_element_set_no": 999,
        "meta_rev_at_epoch": 531,
        "meta_bstar": 0,
        "meta_mean_motion_dot": 6.4e-07,
        "meta_mean_motion_ddot": 0,
        "tle_line1": "1 40732U 15034A   25343.94141880  .00000064  00000+0  00000+0 0  9999",
        "tle_line2": "2 40732   2.7284  72.0094 0000964 122.8009 232.3625  1.00266624  5313"
      },
      "geometry": {
        "type": "Point",
        "coordinates": [
          41.64817701324537,
          -1.3651167744601498
        ]
      }
    },
    {
      "type": "Feature",
      "properties": {
        "norad_id": 41105,
        "name": "ELEKTRO-L 2",
        "group": "weather",
        "lat": -5.08519055428256,
        "lon": 18.003413564559786,
        "alt_km": 35791.25141207242,
        "timestamp": "2025-12-10T20:49:52.203739+00:00",
        "meta_object_name": "ELEKTRO-L 2",
        "meta_object_id": "2015-074A",
        "meta_epoch": "2025-12-09T01:31:10.511904",
        "meta_mean_motion": 1.00271905,
        "meta_eccentricity": 0.00038363,
        "meta_inclination": 6.2161,
        "meta_ra_of_asc_node": 72.8685,
        "meta_arg_of_pericenter": 198.9202,
        "meta_mean_anomaly": 174.5582,
        "meta_ephemeris_type": 0,
        "meta_classification_type": "U",
        "meta_norad_cat_id": 41105,
        "meta_element_set_no": 999,
        "meta_rev_at_epoch": 3660,
        "meta_bstar": 0,
        "meta_mean_motion_dot": -1.16e-06,
        "meta_mean_motion_ddot": 0,
        "tle_line1": "1 41105U 15074A   25343.06331611 -.00000116  00000+0  00000+0 0  9993",
        "tle_line2": "2 41105   6.2161  72.8685 0003836 198.9202 174.5582  1.00271905 36608"
      },
      "geometry": {
        "type": "Point",
        "coordinates": [
          18.003413564559786,
          -5.08519055428256
        ]
      }
    },
    {
      "type": "Feature",
      "properties": {
        "norad_id": 41752,
        "name": "INSAT-3DR",
        "group": "weather",
        "lat": 0.04475910457133748,
        "lon": 106.25721953693383,
        "alt_km": 35845.31147085409,
        "timestamp": "2025-12-10T20:49:52.203752+00:00",
        "meta_object_name": "INSAT-3DR",
        "meta_object_id": "2016-054A",
        "meta_epoch": "2025-12-10T08:41:38.596992",
        "meta_mean_motion": 1.00270503,
        "meta_eccentricity": 0.00144719,
        "meta_inclination": 0.0862,
        "meta_ra_of_asc_node": 86.5692,
        "meta_arg_of_pericenter": 183.809,
        "meta_mean_anomaly": 13.3753,
        "meta_ephemeris_type": 0,
        "meta_classification_type": "U",
        "meta_norad_cat_id": 41752,
        "meta_element_set_no": 999,
        "meta_rev_at_epoch": 3392,
        "meta_bstar": 0,
        "meta_mean_motion_dot": -7.3e-07,
        "meta_mean_motion_ddot": 0,
        "tle_line1": "1 41752U 16054A   25344.36225228 -.00000073  00000+0  00000+0 0  9992",
        "tle_line2": "2 41752   0.0862  86.5692 0014471 183.8090  13.3753  1.00270503 33926"
      },
      "geometry": {
        "type": "Point",
        "coordinates": [
          106.25721953693383,
          0.04475910457133748
        ]
      }
    },
    {
      "type": "Feature",
      "properties": {
        "norad_id": 41836,
        "name": "HIMAWARI-9",
        "group": "weather",
        "lat": 0.017952406238947963,
        "lon": 173.05791645540336,
        "alt_km": 35787.30144543452,
        "timestamp": "2025-12-10T20:49:52.203764+00:00",
        "meta_object_name": "HIMAWARI-9",
        "meta_object_id": "2016-064A",
        "meta_epoch": "2025-12-10T12:49:38.623584",
        "meta_mean_motion": 1.00270143,
        "meta_eccentricity": 0.00012081,
        "meta_inclination": 0.0277,
        "meta_ra_of_asc_node": 81.5503,
        "meta_arg_of_pericenter": 189.7411,
        "meta_mean_anomaly": 141.4004,
        "meta_ephemeris_type": 0,
        "meta_classification_type": "U",
        "meta_norad_cat_id": 41836,
        "meta_element_set_no": 999,
        "meta_rev_at_epoch": 3331,
        "meta_bstar": 0,
        "meta_mean_motion_dot": -2.71e-06,
        "meta_mean_motion_ddot": 0,
        "tle_line1": "1 41836U 16064A   25344.53447481 -.00000271  00000+0  00000+0 0  9992",
        "tle_line2": "2 41836   0.0277  81.5503 0001208 189.7411 141.4004  1.00270143 33316"
      },
      "geometry": {
        "type": "Point",
        "coordinates": [
          173.05791645540336,
          0.017952406238947963
        ]
      }
    }
  ]
}